ONEWEB-0670             
1 55829U 23029AK  24073.94328140 -.00000012  00000+0 -67239-4 0  9997
2 55829  87.8900  93.9616 0002316  78.8274 281.3116 13.14503130 51015
ONEWEB-0671             
1 55830U 23029AL  24073.34280620  .00000084  00000+0  17708-3 0  9995
2 55830  87.9123 109.3694 0002108  86.0424 274.0950 13.19726995 49978
ONEWEB-0672             
1 55831U 23029AM  24073.95065372  .00000058  00000+0  11042-3 0  9994
2 55831  87.9129  78.6548 0001993  99.9888 260.1470 13.20772100 52214
ONEWEB-0673             
1 55832U 23029AN  24073.84982173 -.00000029  00000+0 -10600-3 0  9999
2 55832  87.9117 109.2363 0001995  86.1235 274.0126 13.19727561 50044
ONEWEB-0674             
1 55833U 23029AP  24073.75932947 -.00000136  00000+0 -40258-3 0  9995
2 55833  87.8897  94.0088 0002477  82.3406 277.8005 13.14502923 50975
ONEWEB-0675             
1 55834U 23029AQ  24073.48654680  .00000007  00000+0 -15293-4 0  9999
2 55834  87.9125 109.3376 0001667 105.4088 254.7229 13.19726331 50017
ONEWEB-0720             
1 55835U 23029AR  24073.47865044  .00000080  00000+0  16676-3 0  9992
2 55835  87.9124 109.3410 0001703  78.8451 281.2873 13.19725919 49934
ONEWEB-0537             
1 56046U 23043A   24073.94361412  .00000114  00000+0  26516-3 0  9997
2 56046  87.9103  33.0013 0001829  93.0359 267.0981 13.16592994 50377
